{"type": "FeatureCollection", "features": [ {"type": "Feature", "properties": {"norad_id": 52912, "name": "GAOFEN-12 03", "group": "resource", "lat": -36.102113011458464, "lon": 56.77567270223224, "alt_km": 638.1841502432744, "timestamp": "2025-12-21T09:37:22.306246+00:00", "meta": {"OBJECT_NAME": "GAOFEN-12 03", "OBJECT_ID": "2022-069A", "EPOCH": "2025-12-21T05:24:06.768576", "MEAN_MOTION": 14.79626548, "ECCENTRICITY": 0.0001973, "INCLINATION": 97.8488, "RA_OF_ASC_NODE": 242.3775, "ARG_OF_PERICENTER": 51.5475, "MEAN_ANOMALY": 308.5914, "EPHEMERIS_TYPE": 0, "CLASSIFICATION_TYPE": "U", "NORAD_CAT_ID": 52912, "ELEMENT_SET_NO": 999, "REV_AT_EPOCH": 18829, "BSTAR": 7.4873e-05, "MEAN_MOTION_DOT": 5.11e-06, "MEAN_MOTION_DDOT": 0}, "tle": {"line1": "1 52912U 22069A   25355.22507834  .00000511  00000+0  74873-4 0  9998", "line2": "2 52912  97.8488 242.3775 0001973  51.5475 308.5914 14.79626548188292"}}, "geometry": {"type": "Point", "coordinates": [56.77567270223224, -36.102113011458464]}}, {"type": "Feature", "properties": {"norad_id": 54754, "name": "SWOT", "group": "resource", "lat": -59.41834976219692, "lon": 117.13354541620704, "alt_km": 900.3956675918662, "timestamp": "2025-12-21T09:37:22.306256+00:00", "meta": {"OBJECT_NAME": "SWOT", "OBJECT_ID": "2022-173A", "EPOCH": "2025-12-21T03:19:37.466976", "MEAN_MOTION": 14.00167984, "ECCENTRICITY": 3.6e-05, "INCLINATION": 77.6109, "RA_OF_ASC_NODE": 275.6524, "ARG_OF_PERICENTER": 89.5573, "MEAN_ANOMALY": 270.562, "EPHEMERIS_TYPE": 0, "CLASSIFICATION_TYPE": "U", "NORAD_CAT_ID": 54754, "ELEMENT_SET_NO": 999, "REV_AT_EPOCH": 15423, "BSTAR": 1.9269e-06, "MEAN_MOTION_DOT": 0, "MEAN_MOTION_DDOT": 0}, "tle": {"line1": "1 54754U 22173A   25355.13862809  .00000000  00000+0  19269-5 0  9998", "line2": "2 54754  77.6109 275.6524 0000360  89.5573 270.5620 14.00167984154231"}}, "geometry": {"type": "Point", "coordinates": [117.13354541620704, -59.41834976219692]}}, {"type": "Feature", "properties": {"norad_id": 57654, "name": "GAOFEN-12 04", "group": "resource", "lat": 28.528858626153472, "lon": -93.30911564509054, "alt_km": 628.3587391746205, "timestamp": "2025-12-21T09:37:22.306266+00:00", "meta": {"OBJECT_NAME": "GAOFEN-12 04", "OBJECT_ID": "2023-123A", "EPOCH": "2025-12-21T04:37:27.348096", "MEAN_MOTION": 14.79721734, "ECCENTRICITY": 0.0001228, "INCLINATION": 97.9127, "RA_OF_ASC_NODE": 270.8218, "ARG_OF_PERICENTER": 77.7078, "MEAN_ANOMALY": 282.4272, "EPHEMERIS_TYPE": 0, "CLASSIFICATION_TYPE": "U", "NORAD_CAT_ID": 57654, "ELEMENT_SET_NO": 999, "REV_AT_EPOCH": 12630, "BSTAR": 0.0001263, "MEAN_MOTION_DOT": 8.98e-06, "MEAN_MOTION_DDOT": 0}, "tle": {"line1": "1 57654U 23123A   25355.19267764  .00000898  00000+0  12630-3 0  9999", "line2": "2 57654  97.9127 270.8218 0001228  77.7078 282.4272 14.79721734126305"}}, "geometry": {"type": "Point", "coordinates": [-93.30911564509054, 28.528858626153472]}}, {"type": "Feature", "properties": {"norad_id": 59065, "name": "PARS 1", "group": "resource", "lat": 4.132448928550251, "lon": 147.06108981111916, "alt_km": 450.50219376253244, "timestamp": "2025-12-21T09:37:22.306276+00:00", "meta": {"OBJECT_NAME": "PARS 1", "OBJECT_ID": "2024-039Q", "EPOCH": "2025-12-21T04:11:19.878432", "MEAN_MOTION": 15.41151029, "ECCENTRICITY": 0.0011984, "INCLINATION": 97.4643, "RA_OF_ASC_NODE": 326.287, "ARG_OF_PERICENTER": 46.5999, "MEAN_ANOMALY": 313.6243, "EPHEMERIS_TYPE": 0, "CLASSIFICATION_TYPE": "U", "NORAD_CAT_ID": 59065, "ELEMENT_SET_NO": 999, "REV_AT_EPOCH": 10118, "BSTAR": 0.00021602, "MEAN_MOTION_DOT": 8.886e-05, "MEAN_MOTION_DDOT": 0}, "tle": {"line1": "1 59065U 24039Q   25355.17453563  .00008886  00000+0  21602-3 0  9990", "line2": "2 59065  97.4643 326.2870 0011984  46.5999 313.6243 15.41151029101185"}}, "geometry": {"type": "Point", "coordinates": [147.06108981111916, 4.132448928550251]}}, {"type": "Feature", "properties": {"norad_id": 59371, "name": "RESURS-P 4", "group": "resource", "lat": 38.353418610970095, "lon": -64.23239099473243, "alt_km": 466.03367311720103, "timestamp": "2025-12-21T09:37:22.306287+00:00", "meta": {"OBJECT_NAME": "RESURS-P 4", "OBJECT_ID": "2024-061A", "EPOCH": "2025-12-21T04:45:07.587072", "MEAN_MOTION": 15.32146526, "ECCENTRICITY": 9.69e-05, "INCLINATION": 97.2559, "RA_OF_ASC_NODE": 301.3549, "ARG_OF_PERICENTER": 63.8683, "MEAN_ANOMALY": 296.2659, "EPHEMERIS_TYPE": 0, "CLASSIFICATION_TYPE": "U", "NORAD_CAT_ID": 59371, "ELEMENT_SET_NO": 999, "REV_AT_EPOCH": 9650, "BSTAR": 9.323e-05, "MEAN_MOTION_DOT": 2.818e-05, "MEAN_MOTION_DDOT": 0}, "tle": {"line1": "1 59371U 24061A   25355.19800448  .00002818  00000+0  93230-4 0  9991", "line2": "2 59371  97.2559 301.3549 0000969  63.8683 296.2659 15.32146526 96501"}}, "geometry": {"type": "Point", "coordinates": [-64.23239099473243, 38.353418610970095]}}, {"type": "Feature", "properties": {"norad_id": 59625, "name": "LEGION 1", "group": "resource", "lat": 41.057971577071655, "lon": -103.42627199977822, "alt_km": 514.9605205353964, "timestamp": "2025-12-21T09:37:22.306297+00:00", "meta": {"OBJECT_NAME": "LEGION 1", "OBJECT_ID": "2024-081A", "EPOCH": "2025-12-21T04:15:49.002336", "MEAN_MOTION": 15.16554369, "ECCENTRICITY": 0.000362, "INCLINATION": 97.5206, "RA_OF_ASC_NODE": 69.7443, "ARG_OF_PERICENTER": 279.0689, "MEAN_ANOMALY": 81.0134, "EPHEMERIS_TYPE": 0, "CLASSIFICATION_TYPE": "U", "NORAD_CAT_ID": 59625, "ELEMENT_SET_NO": 999, "REV_AT_EPOCH": 9055, "BSTAR": 0.00017556, "MEAN_MOTION_DOT": 3.358e-05, "MEAN_MOTION_DDOT": 0}, "tle": {"line1": "1 59625U 24081A   25355.17765049  .00003358  00000+0  17556-3 0  9996", "line2": "2 59625  97.5206  69.7443 0003620 279.0689  81.0134 15.16554369 90554"}}, "geometry": {"type": "Point", "coordinates": [-103.42627199977822, 41.057971577071655]}}, {"type": "Feature", "properties": {"norad_id": 59626, "name": "LEGION 2", "group": "resource", "lat": -40.999687815447594, "lon": 76.64832973413934, "alt_km": 521.047847202537, "timestamp": "2025-12-21T09:37:22.306306+00:00", "meta": {"OBJECT_NAME": "LEGION 2", "OBJECT_ID": "2024-081B", "EPOCH": "2025-12-21T03:28:15.955104", "MEAN_MOTION": 15.16568074, "ECCENTRICITY": 0.0005647, "INCLINATION": 97.5209, "RA_OF_ASC_NODE": 69.7995, "ARG_OF_PERICENTER": 256.8666, "MEAN_ANOMALY": 103.1937, "EPHEMERIS_TYPE": 0, "CLASSIFICATION_TYPE": "U", "NORAD_CAT_ID": 59626, "ELEMENT_SET_NO": 999, "REV_AT_EPOCH": 9055, "BSTAR": 0.00017654, "MEAN_MOTION_DOT": 3.379e-05, "MEAN_MOTION_DDOT": 0}, "tle": {"line1": "1 59626U 24081B   25355.14462911  .00003379  00000+0  17654-3 0  9998", "line2": "2 59626  97.5209  69.7995 0005647 256.8666 103.1937 15.16568074 90554"}}, "geometry": {"type": "Point", "coordinates": [76.64832973413934, -40.999687815447594]}}, {"type": "Feature", "properties": {"norad_id": 60182, "name": "ALOS-4 (DAICHI-4)", "group": "resource", "lat": -78.81908103937191, "lon": -134.66569932354966, "alt_km": 639.2443353608815, "timestamp": "2025-12-21T09:37:22.306316+00:00", "meta": {"OBJECT_NAME": "ALOS-4 (DAICHI-4)", "OBJECT_ID": "2024-123A", "EPOCH": "2025-12-20T19:27:23.067360", "MEAN_MOTION": 14.79476697, "ECCENTRICITY": 0.00013881, "INCLINATION": 97.9224, "RA_OF_ASC_NODE": 89.5428, "ARG_OF_PERICENTER": 101.339, "MEAN_ANOMALY": 258.7977, "EPHEMERIS_TYPE": 0, "CLASSIFICATION_TYPE": "U", "NORAD_CAT_ID": 60182, "ELEMENT_SET_NO": 999, "REV_AT_EPOCH": 7950, "BSTAR": 0.00018374076, "MEAN_MOTION_DOT": 1.321e-05, "MEAN_MOTION_DDOT": 0}, "tle": {"line1": "1 60182U 24123A   25354.81068365  .00001321  00000+0  18374-3 0  9997", "line2": "2 60182  97.9224  89.5428 0001388 101.3390 258.7977 14.79476697 79501"}}, "geometry": {"type": "Point", "coordinates": [-134.66569932354966, -78.81908103937191]}}, {"type": "Feature", "properties": {"norad_id": 60452, "name": "LEGION 3", "group": "resource", "lat": 39.223259994422804, "lon": -41.53791428875377, "alt_km": 523.2155138419248, "timestamp": "2025-12-21T09:37:22.306326+00:00", "meta": {"OBJECT_NAME": "LEGION 3", "OBJECT_ID": "2024-146A", "EPOCH": "2025-12-21T03:01:01.596288", "MEAN_MOTION": 15.15840758, "ECCENTRICITY": 0.0015667, "INCLINATION": 45.0016, "RA_OF_ASC_NODE": 265.175, "ARG_OF_PERICENTER": 243.7421, "MEAN_ANOMALY": 116.1848, "EPHEMERIS_TYPE": 0, "CLASSIFICATION_TYPE": "U", "NORAD_CAT_ID": 60452, "ELEMENT_SET_NO": 999, "REV_AT_EPOCH": 7500, "BSTAR": 0.00016989, "MEAN_MOTION_DOT": 3.047e-05, "MEAN_MOTION_DDOT": 0}, "tle": {"line1": "1 60452U 24146A   25355.12571292  .00003047  00000+0  16989-3 0  9992", "line2": "2 60452  45.0016 265.1750 0015667 243.7421 116.1848 15.15840758 75004"}}, "geometry": {"type": "Point", "coordinates": [-41.53791428875377, 39.223259994422804]}}, {"type": "Feature", "properties": {"norad_id": 60453, "name": "LEGION 4", "group": "resource", "lat": 38.72489712188274, "lon": 48.731132569804316, "alt_km": 509.7200119033005, "timestamp": "2025-12-21T09:37:22.306337+00:00", "meta": {"OBJECT_NAME": "LEGION 4", "OBJECT_ID": "2024-146B", "EPOCH": "2025-12-21T01:26:32.722080", "MEAN_MOTION": 15.15902748, "ECCENTRICITY": 0.0008644, "INCLINATION": 45.0392, "RA_OF_ASC_NODE": 357.3017, "ARG_OF_PERICENTER": 355.9923, "MEAN_ANOMALY": 4.0885, "EPHEMERIS_TYPE": 0, "CLASSIFICATION_TYPE": "U", "NORAD_CAT_ID": 60453, "ELEMENT_SET_NO": 999, "REV_AT_EPOCH": 7384, "BSTAR": 0.00019012, "MEAN_MOTION_DOT": 3.442e-05, "MEAN_MOTION_DDOT": 0}, "tle": {"line1": "1 60453U 24146B   25355.06010095  .00003442  00000+0  19012-3 0  9994", "line2": "2 60453  45.0392 357.3017 0008644 355.9923   4.0885 15.15902748 73846"}}, "geometry": {"type": "Point", "coordinates": [48.731132569804316, 38.72489712188274]}}]}